OBJECT_NAME,OBJECT_ID,EPOCH,MEAN_MOTION,ECCENTRICITY,INCLINATION,RA_OF_ASC_NODE,ARG_OF_PERICENTER,MEAN_ANOMALY,EPHEMERIS_TYPE,CLASSIFICATION_TYPE,NORAD_CAT_ID,ELEMENT_SET_NO,REV_AT_EPOCH,BSTAR,MEAN_MOTION_DOT,MEAN_MOTION_DDOT
FORMOSAT 7-4,2019-036M,2026-06-11T14:26:34.077120,14.96475271,.0001438,23.9971,132.1530,120.2022,239.8622,0,U,44350,999,38323,.17571E-3,.2347E-4,0
FORMOSAT 7-2,2019-036N,2026-06-10T18:10:31.196064,14.96473915,.00010217,23.9969,192.1641,105.9152,254.1461,0,U,44351,999,38262,.15417489E-3,.2096E-4,0
FORMOSAT 7-6,2019-036Q,2026-06-10T21:22:16.881888,14.96483548,.00012669,23.9992,12.0792,36.7502,323.3085,0,U,44353,999,38087,.18509426E-3,.2456E-4,0
FORMOSAT 7-5,2019-036V,2026-06-10T17:37:32.396736,14.96490578,.00007115,23.9996,311.8841,88.5872,271.4710,0,U,44358,999,38138,.1895407E-3,.2508E-4,0
METEOR-M2 2,2019-038A,2026-06-11T21:44:35.172960,14.24363551,.0002217,98.9142,150.1130,56.5710,303.5680,0,U,44387,999,36054,-.10484E-3,-.288E-5,0
GLOBAL-4,2019-054E,2026-06-11T14:03:09.019584,15.63869122,.0006454,45.0063,268.7103,304.2226,55.8059,0,U,44499,999,37948,.51261E-3,.49298E-3,0
ZY-1 02D,2019-059A,2026-06-11T20:11:45.125664,14.35457704,.0002318,98.3193,224.5153,114.8427,245.3001,0,U,44528,999,35357,.1909E-4,.13E-6,0
TAURUS-1 (JINNIUZUO 1),2019-059C,2026-06-11T19:19:14.301696,14.72040742,.0007654,98.6408,327.2998,335.2748,24.8090,0,U,44530,999,35785,.80794E-3,.5025E-4,0
ZHUHAI-1 03B,2019-060C,2026-06-11T20:07:36.280704,15.53794333,.0007737,97.5517,320.3167,339.5345,20.5596,0,U,44536,999,37549,.44972E-3,.2885E-3,0
ZHUHAI-1 03D,2019-060E,2026-06-11T19:11:15.199872,15.49448599,.0006759,97.5380,312.4440,322.9679,37.1105,0,U,44538,999,37524,.50237E-3,.27596E-3,0
ZHUHAI-1 03E,2019-060F,2026-06-11T20:29:35.970720,15.40894718,.0006364,97.5599,312.6174,50.8898,309.2913,0,U,44539,999,37494,.40034E-3,.16387E-3,0
GAOFEN-7,2019-072A,2026-06-11T20:55:32.542752,15.21561015,.0017814,97.2435,224.5383,58.2571,302.0398,0,U,44703,999,36683,.1667E-3,.3705E-4,0
JILIN-1 GAOFEN 2A,2019-075A,2026-06-11T19:18:17.085888,15.39168340,.0007597,97.4969,246.4689,103.0862,257.1232,0,U,44777,999,36405,.31627E-3,.1221E-3,0
NINGXIA-1 1,2019-076A,2026-06-11T14:57:47.769984,14.02037594,.0010328,45.0038,204.7159,136.0467,224.1190,0,U,44779,999,33707,.29047E-4,-.85E-6,0
NINGXIA-1 5,2019-076E,2026-06-11T15:17:12.608736,14.02085474,.0009863,45.0040,203.9993,124.9581,235.2181,0,U,44783,999,33699,-.70709E-5,-.141E-5,0
KL-ALPHA A,2019-077A,2026-06-11T21:09:01.784160,13.56042512,.001303,88.9257,223.1447,119.0746,241.1714,0,U,44785,999,32501,.1053E-4,.2E-6,0
CARTOSAT-3,2019-081A,2026-06-11T19:44:14.750016,15.19242938,.0012707,97.4312,224.7754,165.8329,194.3264,0,U,44804,999,36265,.15465E-3,.3196E-4,0
JILIN-1 GAOFEN 2B,2019-086A,2026-06-11T19:36:51.529248,15.20651920,.0013311,97.4887,234.8417,344.4836,15.5989,0,U,44836,999,35967,.25617E-3,.5566E-4,0
TIANQIN 1 (CAS-6),2019-093A,2026-06-11T19:16:35.585760,14.95412097,.0012772,97.7811,246.6824,73.3095,286.9527,0,U,44879,999,35124,.10038E-3,.1052E-4,0
ETRSS-1,2019-093B,2026-06-11T19:28:38.130816,14.95837376,.0012695,97.7822,247.1453,73.5304,286.7311,0,U,44880,999,35125,.16277E-3,.1762E-4,0
TIANYAN 01,2019-093C,2026-06-11T20:40:47.971776,14.86508603,.0014977,97.7532,235.2236,102.4587,257.8305,0,U,44881,999,35062,.19364E-4,.118E-5,0
TIANYAN 02,2019-093D,2026-06-11T20:49:34.523616,15.05164703,.0014436,97.7939,257.6066,46.2491,313.9927,0,U,44882,999,35181,.4497E-3,.6361E-4,0
CBERS 4A,2019-093E,2026-06-11T18:06:38.723904,14.81285632,.0000643,97.8373,230.2013,111.1779,248.9503,0,U,44883,999,35027,.88426E-4,.638E-5,0
WEILAI 1R,2019-093F,2026-06-11T20:29:04.557408,15.00596822,.0017933,97.7847,252.7316,52.2940,307.9906,0,U,44884,999,35162,.25966E-3,.3229E-4,0
FLORIPASAT-1,2019-093G,2026-06-11T20:03:43.493184,15.03818237,.0013314,97.7913,257.0283,88.5505,271.7245,0,U,44885,999,35184,.26378E-3,.357E-4,0
SHUNTIAN,2019-093H,2026-06-11T20:29:56.259168,14.95129409,.0013201,97.8002,251.0417,84.6605,275.6121,0,U,44886,999,35138,.19003E-3,.2029E-4,0
ELEKTRO-L 3,2019-095A,2026-06-11T21:05:29.872608,1.00271962,.0001196,0.2419,81.4610,355.9198,215.1672,0,U,44903,999,2365,0,-.8E-6,0
