FORMOSAT 7-4            
1 44350U 19036M   26162.60178330  .00002347  00000+0  17571-3 0  9999
2 44350  23.9971 132.1530 0001438 120.2022 239.8622 14.96475271383236
FORMOSAT 7-2            
1 44351U 19036N   26161.75730551  .00002096  00000+0  15417-3 0  9992
2 44351  23.9969 192.1641 0001021 105.9152 254.1461 14.96473915382621
FORMOSAT 7-6            
1 44353U 19036Q   26161.89047317  .00002456  00000+0  18509-3 0  9995
2 44353  23.9992  12.0792 0001266  36.7502 323.3085 14.96483548380876
FORMOSAT 7-5            
1 44358U 19036V   26161.73440274  .00002508  00000+0  18954-3 0  9994
2 44358  23.9996 311.8841 0000711  88.5872 271.4710 14.96490578381385
METEOR-M2 2             
1 44387U 19038A   26162.90596265 -.00000288  00000+0 -10484-3 0  9995
2 44387  98.9142 150.1130 0002217  56.5710 303.5680 14.24363551360545
GLOBAL-4                
1 44499U 19054E   26162.58552106  .00049298  00000+0  51261-3 0  9997
2 44499  45.0063 268.7103 0006454 304.2226  55.8059 15.63869122379481
ZY-1 02D                
1 44528U 19059A   26162.84149451  .00000013  00000+0  19090-4 0  9996
2 44528  98.3193 224.5153 0002318 114.8427 245.3001 14.35457704353579
TAURUS-1 (JINNIUZUO 1)  
1 44530U 19059C   26162.80502664  .00005025  00000+0  80794-3 0  9990
2 44530  98.6408 327.2998 0007654 335.2748  24.8090 14.72040742357859
ZHUHAI-1 03B            
1 44536U 19060C   26162.83861436  .00028850  00000+0  44972-3 0  9995
2 44536  97.5517 320.3167 0007737 339.5345  20.5596 15.53794333375494
ZHUHAI-1 03D            
1 44538U 19060E   26162.79948148  .00027596  00000+0  50237-3 0  9995
2 44538  97.5380 312.4440 0006759 322.9679  37.1105 15.49448599375247
ZHUHAI-1 03E            
1 44539U 19060F   26162.85388855  .00016387  00000+0  40034-3 0  9996
2 44539  97.5599 312.6174 0006364  50.8898 309.2913 15.40894718374943
GAOFEN-7                
1 44703U 19072A   26162.87190443  .00003705  00000+0  16670-3 0  9997
2 44703  97.2435 224.5383 0017814  58.2571 302.0398 15.21561015366834
JILIN-1 GAOFEN 2A       
1 44777U 19075A   26162.80436442  .00012210  00000+0  31627-3 0  9996
2 44777  97.4969 246.4689 0007597 103.0862 257.1232 15.39168340364052
NINGXIA-1 1             
1 44779U 19076A   26162.62346956 -.00000085  00000+0  29047-4 0  9991
2 44779  45.0038 204.7159 0010328 136.0467 224.1190 14.02037594337076
NINGXIA-1 5             
1 44783U 19076E   26162.63695149 -.00000141  00000+0 -70709-5 0  9994
2 44783  45.0040 203.9993 0009863 124.9581 235.2181 14.02085474336999
KL-ALPHA A              
1 44785U 19077A   26162.88127065  .00000020  00000+0  10530-4 0  9990
2 44785  88.9257 223.1447 0013030 119.0746 241.1714 13.56042512325017
CARTOSAT-3              
1 44804U 19081A   26162.82239294  .00003196  00000+0  15465-3 0  9997
2 44804  97.4312 224.7754 0012707 165.8329 194.3264 15.19242938362655
JILIN-1 GAOFEN 2B       
1 44836U 19086A   26162.81726307  .00005566  00000+0  25617-3 0  9995
2 44836  97.4887 234.8417 0013311 344.4836  15.5989 15.20651920359678
TIANQIN 1 (CAS-6)       
1 44879U 19093A   26162.80318965  .00001052  00000+0  10038-3 0  9993
2 44879  97.7811 246.6824 0012772  73.3095 286.9527 14.95412097351241
ETRSS-1                 
1 44880U 19093B   26162.81155244  .00001762  00000+0  16277-3 0  9994
2 44880  97.7822 247.1453 0012695  73.5304 286.7311 14.95837376351259
TIANYAN 01              
1 44881U 19093C   26162.86166634  .00000118  00000+0  19364-4 0  9990
2 44881  97.7532 235.2236 0014977 102.4587 257.8305 14.86508603350625
TIANYAN 02              
1 44882U 19093D   26162.86776069  .00006361  00000+0  44970-3 0  9996
2 44882  97.7939 257.6066 0014436  46.2491 313.9927 15.05164703351812
CBERS 4A                
1 44883U 19093E   26162.75461486  .00000638  00000+0  88426-4 0  9995
2 44883  97.8373 230.2013 0000643 111.1779 248.9503 14.81285632350275
WEILAI 1R               
1 44884U 19093F   26162.85352497  .00003229  00000+0  25966-3 0  9996
2 44884  97.7847 252.7316 0017933  52.2940 307.9906 15.00596822351622
FLORIPASAT-1            
1 44885U 19093G   26162.83592006  .00003570  00000+0  26378-3 0  9994
2 44885  97.7913 257.0283 0013314  88.5505 271.7245 15.03818237351844
SHUNTIAN                
1 44886U 19093H   26162.85412337  .00002029  00000+0  19003-3 0  9990
2 44886  97.8002 251.0417 0013201  84.6605 275.6121 14.95129409351382
ELEKTRO-L 3             
1 44903U 19095A   26162.87881797 -.00000080  00000+0  00000+0 0  9993
2 44903   0.2419  81.4610 0001196 355.9198 215.1672  1.00271962 23653
